name	address	longitude	latitude
Alameda Natural Grocery	1650 Park St  Alameda CA	-122.2394426	37.7677375
Andronico's Community Markets	900 Lighthouse Ave  Monterey CA	-121.9034848	36.6177995
Andronico's Community Markets	1200 Irving St  San Francisco CA	-122.4711457	37.7641482
Berkeley Bowl Marketplace	2020 Oregon St  Berkeley CA	-122.2672497	37.857113
Berkeley Bowl Marketplace	920 Heinz Ave  Berkeley CA	-122.2903762	37.8535336
Berkeley Farmer's Market, All Organic Thursday Market	Shattuck Ave and Vine St  Berkeley CA	-122.2693585	37.880225
Berkeley Natural Grocery	1336 Gilman St  Berkeley CA	-122.288567	37.880892
Berkeley Student Food Collective	2440 Bancroft Way #102  Berkeley CA	-122.2604369	37.8683181
Bi-Rite Market	3639 18th St  San Francisco CA	-122.4247155	37.7613327
Bi-Rite Market	542 Divisadero St  San Francisco CA	-122.4374981	37.7746874
BŌL Superfood Cafe	129 Miller Ave  Mill Valley CA	-122.5444272	37.9036677
Canyon Market	2815 Diamond St  San Francisco CA	-122.4336521	37.7340832
Cheese Plus	2001 Polk St  San Francisco CA	-122.4219061	37.7951937
Coast Big Sur	49901 Highway 1  Big Sur CA	-121.7254906	36.2019329
Côte West	2012 Dennison St Suite A  Oakland CA	-122.2405111	37.7795652
Cowgirl Creamery Cheese Shop at Tomales Bay Foods	80 4th St  Pt Reyes Station CA	-122.8071713	38.0681704
Cowgirl Creamery Cheese Shop	One Embarcadero No. 17  San Francisco CA	-122.398545	37.7944148
Decant SF	1168 Folsom St  San Francisco CA	-122.4096056	37.7757508
Delta Farmer's Market 	2510 State Hwy 12  Isleton CA	-121.6758527	38.1541594
Diablo Foods	3615 Mt Diablo Blvd  Lafayette CA	-122.1244815	37.8906975
Douglas SF	1598 Sanchez St  San Francisco CA	-122.4290966	37.7436575
Draeger's Market	222 E 4th Ave  San Mateo CA	-122.3214694	37.5642876
Driver's Market	200 Caledonia St  Sausalito CA	-122.4862508	37.859356
El Cerrito Natural Grocery	10367 San Pablo Ave  El Cerrito CA	-122.3062782	37.9073284
El Cerrito Natural Grocery Prepared Food Annex	10367 San Pablo Ave  El Cerrito CA	-122.3062782	37.9073284
Erewhon Market	26767 Agoura Road  Calabasas CA	-118.7075004	34.1408984
Erewhon Market	7660 E Beverly Blvd  Los Angeles CA	-118.1427666	34.0256349
Erewhon Market	15285 W. Sunset Blvd  Pacific Palisades CA	-118.525608	34.047615
Erewhon Market	2800 Wilshire Blvd  Santa Monica CA	-118.4752192	34.037524
Erewhon Market	585 Venice Blvd  Venice CA	-118.4621998	33.9897855
Fare Resources	  Emeryville CA	-122.2892278	37.8395028
Farm Fresh to You	   CA	-119.4179324	36.778261
Firefly Farms	107 S Main St  Accident MD	-79.3200174	39.628151
Foodhall San Francisco 	3100 16th St  San Francisco CA	-122.4221052	37.7651138
Franklin Bros Market	901 Bancroft Way  Berkeley CA	-122.2950939	37.8639044
Good Earth Natural Foods	720 Center Blvd  Fairfax CA	-122.5831381	37.9862744
Good Earth Natural Foods	201 Flamingo Rd  Mill Valley CA	-122.5257694	37.8809998
Mariposa Baking Company	5427 Telegraph Ave D3  Oakland CA	-122.2623776	37.8397166
Mavens Market	720 West Main St  Bozeman MT	-111.0475184	45.6790116
Milkfarm Artisan Cheese Shop	2106 Colorado Blvd  Los Angeles CA	-118.152759	34.14574
Mill Valley Market	12 Corte Madera Ave  Mill Valley CA	-122.5474092	37.9069772
Miracle Plum	208 Davis St  Santa Rosa CA	-122.7189095	38.43754730000001
Mollie Stone's Markets	22 Bayhill Shopping Center  San Bruno CA	-122.4273479	37.6260556
Mollie Stone's Markets	1477 Chapin Ave  Burlingame CA	-122.350384	37.5772168
Mollie Stone's Markets	4201 18th St  San Francisco CA	-122.4363285	37.7606086
Mollie Stone's Markets	2435 California Ave  San Francisco CA	-122.434559	37.7885472
Mollie Stone's Markets	270 Bon Air Center  Greenbrae CA	-122.5243141	37.94566340000001
Mollie Stone's Markets	164 California  Palo Alto CA	-122.142956	37.4289511
Mollie Stone's Markets	49 W 42nd Ave  San Mateo CA	-122.2898904	37.5292284
Mollie Stone's Markets	100 Harbor Dr  Sausalito CA	-122.4995249	37.8666543
Mollie Stone's Markets	635 Portola Dr  San Francisco CA	-122.4523297	37.74478939999999
Monterey Market	1550 Hopkins St  Berkeley CA	-122.2822415	37.8811336
Mulberry's Market	335 Highland Ave  Piedmont CA	-122.2327969	37.8250763
Napa Farms Market	San Francisco International Airport International Terminal G  San Francisco CA	-122.3789554	37.6213129
Napa Farms Market	San Francisco International Airport Terminal 2  San Francisco CA	-122.3789554	37.6213129
Oakville Grocery	124 W Matheson St  Healdsburg CA	-122.8743545	38.6094348
Oakville Grocery	7856 St. Helena Highway  Oakville CA	-122.402946	38.437357
Parkside, The Marketplace	43 Arenal Ave  Stinson Beach CA	-122.6396449	37.8976278
Petersen Family Farm	11887 S 4000 West Suite B  Riverton UT	-111.9850856	40.535226
Plate Craft Catering	  Oakland CA	-122.2711639	37.8043514
Preserved 	5032 Telegraph Ave  Oakland CA	-122.2621896	37.8369678
Rainbow Grocery	1745 Folsom St  San Francisco CA	-122.415499	37.7692892
Raxakoul Coffee & Cheese	1578 Hopkins St  Berkeley CA	-122.2816805	37.8816932
Raxakoul Coffee & Cheese	299 Arlington Ave  Kensington CA	-122.2779229	37.9035585
Rebel Cheese	2200 Aldrich St Suite 120  Austin TX	-97.7035713	30.3010368
Redfield Cider Bar & Bottle Shop	5815 College Ave  Oakland CA	-122.2521505	37.8464586
Ripen	  Oakland CA	-122.2711639	37.8043514
Riverdel Vegan Cheese	820 Washington Ave  Brooklyn NY	-73.9632151	40.6733647
Riverdel Vegan Cheese @ Essex Market	88 Essex St, Stall 35  New York NY	-73.988107	40.7182408
Rocky's Market	1440 Leimert Blvd  Oakland CA	-122.212271	37.8118501
Rooster Brothers	29 Main St  Ellsworth ME	-68.43003709999999	44.5382555
Andronico's Community Markets	1850 Solano Ave  Berkeley CA	-122.2784148	37.8910562
Andronico's Community Markets	1550 Shattuck Ave  Berkeley CA	-122.2699082	37.8786289
Andronico's Community Markets	690 Fremont Ave  Los Altos CA	-122.0970262	37.3608811
Andronico's Community Markets	100 Center Blvd  San Anselmo CA	-122.5631739	37.9770427
Santa Rosa Community Market	1899 Mendocino Ave  Santa Rosa CA	-122.7175199	38.4587994
Seaside Market	2087 San Elijo Ave  Cardiff By The Sea CA	-117.2819844	33.0220067
Sebastopol Community Market	6762 Sebastopol Ave  Sebastopol CA	-122.8199974	38.4032724
Sipside Lounge	119 S. Second St  Oakland MD	-79.40830360000001	39.4086053
Star Grocery	3068 Claremont Ave  Berkeley CA	-122.2482619	37.8547489
Surf Market	39250 CA-1  Gualala CA	-123.52967	38.7667921
The Assembly 	449 14th St  San Francisco CA	-122.4232767	37.7678515
The Cheese Board Collective	1504 Shattuck Ave  Berkeley CA	-122.2694861	37.8799915
The Cheese School	900 North Point St. Suite K201  San Francisco CA	-122.4223763	37.8056739
The Epicurean Trader 	401 Cortland Ave  San Francisco CA	-122.4176414	37.7393322
The Epicurean Trader 	465 Hayes St  San Francisco CA	-122.4238951	37.7766464
The Epicurean Trader 	1909A Union St  San Francisco CA	-122.430881	37.79752
The Local Butcher Shop	1600 Shattuck Ave Suite 120  Berkeley CA	-122.2693854	37.8780587
The Sunshine @ Downtown Local	213 Stage Road  Pescadero CA	-122.3832521	37.2522809
Thistleco.com	  Berkeley CA	-122.273042	37.8715226
Three Stone Hearth	1581 University Ave  Berkeley CA	-122.2806743	37.8709058
Village Market	5885 Broadway Terrace  Oakland CA	-122.2364509	37.8408031
West Coast Provisions	2735 NW Crossing Dr Suite #104  Bend OR	-121.354721	44.0588518
Wild Roots Market	13159 Highway 9  Boulder Creek CA	-122.1224849	37.1247779
Wild Roots Market	6240 CA-9  Felton CA	-122.0727011	37.0519238
Woodlands Market	735 College Ave  Kentfield CA	-122.5499389	37.9521994
Woodlands Market	203 Folsom St  San Francisco CA	-122.3921844	37.7889267
Woodlands Market	1550 Tiburon Blvd  Tiburon CA	-122.4606121	37.8753884
Draeger's Market Blackhawk	4100 Blackhawk Plaza Cir  Danville CA	-121.9189	37.801315
Mike's Organic Market	377 Fairfield Ave  Stamford CT	-73.552872	41.036705
Wild Mala @Insight Coffee Roasters	1901 8th St  Sacramento CA	-121.50009	38.57084
Cheese Cave	325 Yale Ave  Claremont CA	-117.718079	34.097054
Culture Club	101 1392 E Washington Blvd  Pasadena CA	-118.121902	34.168869
Oliver's Market	546 East Cotati Ave  Cotati CA	-122.698457	38.327714
Oliver's Market	560 Montecito Center  Santa Rosa CA	-122.673525	38.474689
Oliver's Market	461 Stony Point Rd  Santa Rosa CA	-122.743996	38.432526
Oliver's Market	9230 Old Redwood Hwy  Windsor CA	-122.8115059	38.548829
The Butcher's Son	1392 E Washington Blvd  Berkeley CA	-122.290306	37.892913
Dorcich Family Vineyards	11775 Watsonville Rd  Gilroy CA	-121.655731	37.045376
The Food Bin	1130 Mission St  Santa Cruz CA	-122.037415	36.969841
The Quail and Olive	14 Del Fino Place  Carmel Valley CA	-121.733704	36.48074
Mission Cheese	736 Valencia St  San Francisco CA	-122.421783	37.761124
Palace Market	11300 State Route One  Pt Reyes Station CA	-122.806	38.068504
Foodstuffs	2106 Central St  Evanston IL	-122.806	38.068504
Foodstuffs	338 Park Ave  Glencoe IL	-122.806	38.068504
Foodstuffs	1454 Waukegan Rd  Glenview IL	-122.806	38.068504
Foodstuffs	255 E Westminster Ave  Lake Forest IL	-122.806	38.068504
Three Leaves Foods	2484 West 3rd St Santa Rosa CA	-122.806	38.068504